IRIDIUM 63              
1 25286U 98021B   25293.27682932  .00000864  00000+0  28708-3 0  9998
2 25286  86.4026  29.6324 0001957  97.6548 262.4871 14.36668871441805
IRIDIUM 69              
1 25319U 98026A   25293.32158993  .00001226  00000+0  37454-3 0  9992
2 25319  86.3999  42.5059 0002162  25.1376 334.9928 14.41121467441082
IRIDIUM 71              
1 25320U 98026B   25293.31288475  .00000625  00000+0  18752-3 0  9994
2 25320  86.4007  37.1866 0003695  63.5420 296.6158 14.41266938441610
IRIDIUM 73              
1 25344U 98032C   25293.22973381  .00001069  00000+0  26038-3 0  9993
2 25344  86.4457 353.7245 0001626  85.1835 274.9556 14.51889521448703
IRIDIUM 82              
1 25467U 98051A   25293.29842496  .00081859  00000+0  18246-2 0  9995
2 25467  86.3649  47.8716 0071305 179.2405 180.8971 15.40577987443153
