<?xml version="1.0" encoding="UTF-8"?>
<ndm xmlns:xsi="http://www.w3.org/2001/XMLSchema-instance" xsi:noNamespaceSchemaLocation="https://sanaregistry.org/r/ndmxml_unqualified/ndmxml-2.0.0-master-2.0.xsd">
<omm id="CCSDS_OMM_VERS" version="2.0">
<header><CREATION_DATE/><ORIGINATOR/></header><body><segment><metadata><OBJECT_NAME>IRIDIUM 63</OBJECT_NAME><OBJECT_ID>1998-021B</OBJECT_ID><CENTER_NAME>EARTH</CENTER_NAME><REF_FRAME>TEME</REF_FRAME><TIME_SYSTEM>UTC</TIME_SYSTEM><MEAN_ELEMENT_THEORY>SGP4</MEAN_ELEMENT_THEORY></metadata><data><meanElements><EPOCH>2025-10-20T06:38:38.053248</EPOCH><MEAN_MOTION>14.36668871</MEAN_MOTION><ECCENTRICITY>.00019575</ECCENTRICITY><INCLINATION>86.4026</INCLINATION><RA_OF_ASC_NODE>29.6324</RA_OF_ASC_NODE><ARG_OF_PERICENTER>97.6548</ARG_OF_PERICENTER><MEAN_ANOMALY>262.4871</MEAN_ANOMALY></meanElements><tleParameters><EPHEMERIS_TYPE>0</EPHEMERIS_TYPE><CLASSIFICATION_TYPE>U</CLASSIFICATION_TYPE><NORAD_CAT_ID>25286</NORAD_CAT_ID><ELEMENT_SET_NO>999</ELEMENT_SET_NO><REV_AT_EPOCH>44180</REV_AT_EPOCH><BSTAR>.28707746E-3</BSTAR><MEAN_MOTION_DOT>.864E-5</MEAN_MOTION_DOT><MEAN_MOTION_DDOT>0</MEAN_MOTION_DDOT></tleParameters></data></segment></body></omm>
<omm id="CCSDS_OMM_VERS" version="2.0">
<header><CREATION_DATE/><ORIGINATOR/></header><body><segment><metadata><OBJECT_NAME>IRIDIUM 69</OBJECT_NAME><OBJECT_ID>1998-026A</OBJECT_ID><CENTER_NAME>EARTH</CENTER_NAME><REF_FRAME>TEME</REF_FRAME><TIME_SYSTEM>UTC</TIME_SYSTEM><MEAN_ELEMENT_THEORY>SGP4</MEAN_ELEMENT_THEORY></metadata><data><meanElements><EPOCH>2025-10-20T07:43:05.369952</EPOCH><MEAN_MOTION>14.41121467</MEAN_MOTION><ECCENTRICITY>.0002162</ECCENTRICITY><INCLINATION>86.3999</INCLINATION><RA_OF_ASC_NODE>42.5059</RA_OF_ASC_NODE><ARG_OF_PERICENTER>25.1376</ARG_OF_PERICENTER><MEAN_ANOMALY>334.9928</MEAN_ANOMALY></meanElements><tleParameters><EPHEMERIS_TYPE>0</EPHEMERIS_TYPE><CLASSIFICATION_TYPE>U</CLASSIFICATION_TYPE><NORAD_CAT_ID>25319</NORAD_CAT_ID><ELEMENT_SET_NO>999</ELEMENT_SET_NO><REV_AT_EPOCH>44108</REV_AT_EPOCH><BSTAR>.37453828E-3</BSTAR><MEAN_MOTION_DOT>.1226E-4</MEAN_MOTION_DOT><MEAN_MOTION_DDOT>0</MEAN_MOTION_DDOT></tleParameters></data></segment></body></omm>
<omm id="CCSDS_OMM_VERS" version="2.0">
<header><CREATION_DATE/><ORIGINATOR/></header><body><segment><metadata><OBJECT_NAME>IRIDIUM 71</OBJECT_NAME><OBJECT_ID>1998-026B</OBJECT_ID><CENTER_NAME>EARTH</CENTER_NAME><REF_FRAME>TEME</REF_FRAME><TIME_SYSTEM>UTC</TIME_SYSTEM><MEAN_ELEMENT_THEORY>SGP4</MEAN_ELEMENT_THEORY></metadata><data><meanElements><EPOCH>2025-10-20T07:30:33.242400</EPOCH><MEAN_MOTION>14.41266938</MEAN_MOTION><ECCENTRICITY>.00036954</ECCENTRICITY><INCLINATION>86.4007</INCLINATION><RA_OF_ASC_NODE>37.1866</RA_OF_ASC_NODE><ARG_OF_PERICENTER>63.5420</ARG_OF_PERICENTER><MEAN_ANOMALY>296.6158</MEAN_ANOMALY></meanElements><tleParameters><EPHEMERIS_TYPE>0</EPHEMERIS_TYPE><CLASSIFICATION_TYPE>U</CLASSIFICATION_TYPE><NORAD_CAT_ID>25320</NORAD_CAT_ID><ELEMENT_SET_NO>999</ELEMENT_SET_NO><REV_AT_EPOCH>44161</REV_AT_EPOCH><BSTAR>.18752409E-3</BSTAR><MEAN_MOTION_DOT>.625E-5</MEAN_MOTION_DOT><MEAN_MOTION_DDOT>0</MEAN_MOTION_DDOT></tleParameters></data></segment></body></omm>
<omm id="CCSDS_OMM_VERS" version="2.0">
<header><CREATION_DATE/><ORIGINATOR/></header><body><segment><metadata><OBJECT_NAME>IRIDIUM 73</OBJECT_NAME><OBJECT_ID>1998-032C</OBJECT_ID><CENTER_NAME>EARTH</CENTER_NAME><REF_FRAME>TEME</REF_FRAME><TIME_SYSTEM>UTC</TIME_SYSTEM><MEAN_ELEMENT_THEORY>SGP4</MEAN_ELEMENT_THEORY></metadata><data><meanElements><EPOCH>2025-10-20T05:30:49.001184</EPOCH><MEAN_MOTION>14.51889521</MEAN_MOTION><ECCENTRICITY>.00016266</ECCENTRICITY><INCLINATION>86.4457</INCLINATION><RA_OF_ASC_NODE>353.7245</RA_OF_ASC_NODE><ARG_OF_PERICENTER>85.1835</ARG_OF_PERICENTER><MEAN_ANOMALY>274.9556</MEAN_ANOMALY></meanElements><tleParameters><EPHEMERIS_TYPE>0</EPHEMERIS_TYPE><CLASSIFICATION_TYPE>U</CLASSIFICATION_TYPE><NORAD_CAT_ID>25344</NORAD_CAT_ID><ELEMENT_SET_NO>999</ELEMENT_SET_NO><REV_AT_EPOCH>44870</REV_AT_EPOCH><BSTAR>.26038485E-3</BSTAR><MEAN_MOTION_DOT>.1069E-4</MEAN_MOTION_DOT><MEAN_MOTION_DDOT>0</MEAN_MOTION_DDOT></tleParameters></data></segment></body></omm>
<omm id="CCSDS_OMM_VERS" version="2.0">
<header><CREATION_DATE/><ORIGINATOR/></header><body><segment><metadata><OBJECT_NAME>IRIDIUM 82</OBJECT_NAME><OBJECT_ID>1998-051A</OBJECT_ID><CENTER_NAME>EARTH</CENTER_NAME><REF_FRAME>TEME</REF_FRAME><TIME_SYSTEM>UTC</TIME_SYSTEM><MEAN_ELEMENT_THEORY>SGP4</MEAN_ELEMENT_THEORY></metadata><data><meanElements><EPOCH>2025-10-20T07:09:43.916544</EPOCH><MEAN_MOTION>15.40577987</MEAN_MOTION><ECCENTRICITY>.0071305</ECCENTRICITY><INCLINATION>86.3649</INCLINATION><RA_OF_ASC_NODE>47.8716</RA_OF_ASC_NODE><ARG_OF_PERICENTER>179.2405</ARG_OF_PERICENTER><MEAN_ANOMALY>180.8971</MEAN_ANOMALY></meanElements><tleParameters><EPHEMERIS_TYPE>0</EPHEMERIS_TYPE><CLASSIFICATION_TYPE>U</CLASSIFICATION_TYPE><NORAD_CAT_ID>25467</NORAD_CAT_ID><ELEMENT_SET_NO>999</ELEMENT_SET_NO><REV_AT_EPOCH>44315</REV_AT_EPOCH><BSTAR>.18245509E-2</BSTAR><MEAN_MOTION_DOT>.81859E-3</MEAN_MOTION_DOT><MEAN_MOTION_DDOT>0</MEAN_MOTION_DDOT></tleParameters></data></segment></body></omm>
</ndm>
